ASTRA 3B                
1 36581U 10021A   19079.90536109  .00000111  00000-0  00000-0 0  9999
2 36581   0.0405  39.9232 0003279 319.5846 168.0327  1.00270064 32359
COMSATBW-2              
1 36582U 10021B   19079.91438185  .00000062  00000-0  00000-0 0  9991
2 36582   0.0184 148.0711 0002580 233.8106 138.5815  1.00272452 32446
BEIDOU 4                
1 36590U 10024A   19079.01926837 -.00000163  00000-0  00000-0 0  9993
2 36590   1.5557  35.6708 0001134  12.6258 215.8825  1.00270370 32242
BADR-5                  
1 36592U 10025A   19079.90536109  .00000119  00000-0  00000-0 0  9993
2 36592   0.0264 135.5575 0001654 276.2799 118.1872  1.00270742 26692
COMS 1                  
1 36744U 10032A   19080.38578896 -.00000370  00000-0  00000+0 0  9992
2 36744   0.0182 188.2659 0000574 127.5500 129.8124  1.00272015 32136
ARABSAT-5A              
1 36745U 10032B   19079.88868675  .00000128  00000-0  00000-0 0  9994
2 36745   0.0561  17.6246 0003226  23.5173 127.4022  1.00275854 32127
ECHOSTAR 15             
1 36792U 10034A   19080.35500815 -.00000307  00000-0  00000+0 0  9990
2 36792   0.0168 217.3904 0002125 128.5397 258.7671  1.00273805 31876
NILESAT 201             
1 36830U 10037A   19079.86336910 -.00000084  00000-0  00000-0 0  9996
2 36830   0.0406 189.8107 0005445 189.9942 102.0787  1.00271892 31836
RASCOM-QAF 1R           
1 36831U 10037B   19079.86537552 -.00000007  00000-0  00000-0 0  9997
2 36831   0.0098  65.4680 0005437 303.6407 123.3828  1.00273640 31779
AEHF-1 (USA 214)        
1 36868U 10039A   19080.38243781  .00000002  00000-0  00000+0 0  9999
2 36868   1.6951 108.1549 0003972 256.4774 315.5930  1.00270712 31919
CHINASAT 6A (ZX 6A)     
1 37150U 10042A   19079.88102091 -.00000380  00000-0  00000+0 0  9999
2 37150   0.0218 167.1393 0003426 322.1877 130.9721  1.00269247 31372
QZS-1 (MICHIBIKI-1)     
1 37158U 10045A   19079.65863900 -.00000197  00000-0  00000-0 0  9995
2 37158  41.2583 150.0699 0749584 270.0342 128.9483  1.00301302 31227
XM-5                    
1 37185U 10053A   19079.56065419 -.00000230  00000-0  00000-0 0  9991
2 37185   0.0256 171.4042 0000385 138.7557 344.2570  1.00267818 30966
BSAT-3B                 
1 37207U 10056B   19079.93938233 -.00000376  00000-0  00000-0 0  9994
2 37207   0.0716 315.5357 0004624  26.1709 284.4899  1.00271009 25703
BEIDOU 6                
1 37210U 10057A   19080.47103183 -.00000137  00000-0  00000+0 0  9992
2 37210   0.9865  54.6950 0003677 193.4181 260.1471  1.00272817 30767
SKYTERRA 1              
1 37218U 10061A   19079.60983969 -.00000143  00000-0  00000-0 0  9994
2 37218   2.4824 343.1573 0004675  22.0915 290.7977  1.00271359 30675
ZHONGXING-20A           
1 37234U 10064A   19078.69303095 -.00000362  00000-0  00000-0 0  9992
2 37234   0.0509  72.8326 0005969 344.0320 139.5504  1.00274308 30441
HYLAS 1                 
1 37237U 10065A   19079.91438185  .00000066  00000-0  00000-0 0  9991
2 37237   0.0818 292.2483 0002176  64.9364 163.9176  1.00273718 30464
INTELSAT 17 (IS-17)     
1 37238U 10065B   19079.90058896 -.00000027  00000-0  00000-0 0  9996
2 37238   0.0215 217.4773 0002616 153.8035 197.0376  1.00271164 26906
EUTELSAT KA-SAT 9A      
1 37258U 10069A   19079.86659682  .00000035  00000-0  00000-0 0  9995
2 37258   0.0224  76.3322 0004683 305.9424 116.7502  1.00270508 17515
HISPASAT 30W-6          
1 37264U 10070A   19079.85883282 -.00000242  00000-0  00000-0 0  9999
2 37264   0.0417 118.4108 0002922 258.7678  80.0667  1.00271696 26655
KOREASAT 6              
1 37265U 10070B   19079.93938233 -.00000388  00000-0  00000-0 0  9997
2 37265   0.0196 140.1738 0001825 219.9859 272.1547  1.00269355 30242
BEIDOU 8                
1 37384U 11013A   19079.85980263 -.00000164  00000-0  10000-3 0  9994
2 37384  58.6599  66.2572 0040835 209.8084 331.3875  1.00281636 29152
INTELSAT NEW DAWN       
1 37392U 11016A   19079.88868675  .00000130  00000-0  00000-0 0  9999
2 37392   0.0176 201.1381 0000602 162.9143 166.7718  1.00273149 26786
YAHSAT 1A               
1 37393U 11016B   19079.94563197  .00000075  00000-0  00000-0 0  9996
2 37393   0.0211 124.3195 0002584 243.0642 203.6768  1.00272284 15886
SBIRS GEO-1 (USA 230)   
1 37481U 11019A   19080.23243758 -.00000035  00000-0  00000+0 0  9995
2 37481   2.6390 329.8369 0002401  42.2893 316.1859  1.00272147 28827
TELSTAR 14R             
1 37602U 11021A   19080.42654156 -.00000306  00000-0  00000+0 0  9993
2 37602   0.0167 355.7120 0003919  15.4964 257.9712  1.00272204 29268
GSAT-8                  
1 37605U 11022A   19079.51299628  .00000059  00000-0  00000-0 0  9999
2 37605   0.0209 248.3779 0005749  48.0492 121.0382  1.00270401 26680
ST-2                    
1 37606U 11022B   19079.88229928 -.00000237  00000-0  00000-0 0  9995
2 37606   0.0107 145.3618 0001299 243.2265 195.1344  1.00271823 28758
CHINASAT 10 (ZX 10)     
1 37677U 11026A   19080.38937907 -.00000378  00000-0  00000+0 0  9992
2 37677   0.0345 265.4200 0001375 271.6808 252.1690  1.00272627 28452
TIANLIAN 1-02           
1 37737U 11032A   19080.47234036 -.00000075  00000-0  00000+0 0  9993
2 37737   2.7256  75.1434 0026720 198.1205 242.3689  1.00269889 28207
GSAT-12                 
1 37746U 11034A   19079.89538666 -.00000191  00000-0  00000-0 0  9995
2 37746   0.0524  96.0318 0014705 338.9667 148.4299  1.00272553 16959
SES-3                   
1 37748U 11035A   19080.20321775 -.00000127  00000-0  00000+0 0  9994
2 37748   0.0120 185.4965 0002317 174.2569 148.8281  1.00269692 28174
KAZSAT-2                
1 37749U 11035B   19079.66664578 -.00000223  00000-0  00000-0 0  9992
2 37749   0.0359 296.6780 0001227 127.6048  80.0774  1.00270525 26867
BEIDOU 9                
1 37763U 11038A   19079.76507647 -.00000129  00000-0  10000-3 0  9994
2 37763  54.4414 189.6921 0059140 221.6658 137.6366  1.00266026 28112
ASTRA 1N                
1 37775U 11041A   19079.90536109  .00000094  00000-0  00000-0 0  9998
2 37775   0.0127 346.1931 0005706  37.9149 139.1386  1.00270310 18003
BSAT-3C (JCSAT-110R)    
1 37776U 11041B   19079.73301949 -.00000376  00000-0  00000-0 0  9996
2 37776   0.0163 248.4969 0000766 187.6225 115.6667  1.00269337 23967
PAKSAT-1R               
1 37779U 11042A   19079.82063234  .00000128  00000-0  00000-0 0  9996
2 37779   0.0374  71.6359 0002981 300.5295 139.2706  1.00272313 27954
CHINASAT 1A (ZX 1A)     
1 37804U 11047A   19079.88425061 -.00000364  00000-0  00000-0 0  9999
2 37804   0.0151 122.8321 0001599 258.4463 244.9844  1.00274178 27550
COSMOS 2473             
1 37806U 11048A   19079.86206056 -.00000133  00000-0  00000-0 0  9995
2 37806   0.0570 117.7863 0002084 267.7227  89.4068  1.00271585 27540
SES-2                   
1 37809U 11049A   19079.84731771 -.00000221  00000-0  00000-0 0  9992
2 37809   0.0204 175.0155 0002642 184.9213  36.1715  1.00268382 27485
ARABSAT-5C              
1 37810U 11049B   19079.90536109  .00000097  00000-0  00000-0 0  9999
2 37810   0.0633  13.6867 0002573 354.2011 156.1484  1.00272939 27536
EUTELSAT 7 WEST A       
1 37816U 11051A   19079.86328185 -.00000086  00000-0  00000-0 0  9995
2 37816   0.0828  45.6380 0002032 137.6095 298.3139  1.00271709 27370
QUETZSAT 1              
1 37826U 11054A   19080.15188375 -.00000267  00000-0  00000+0 0  9998
2 37826   0.0067 224.9958 0003143 156.3429 134.6973  1.00270840 27577
INTELSAT 18 (IS-18)     
1 37834U 11056A   19080.18786425  .00000027  00000-0  00000+0 0  9995
2 37834   0.0176 209.3312 0002636 174.3351  42.3485  1.00270985 27335
EUTELSAT 16A            
1 37836U 11057A   19079.90536109  .00000078  00000-0  00000-0 0  9995
2 37836   0.0678  10.7980 0004495 351.0730 158.1638  1.00272292 19474
VIASAT-1                
1 37843U 11059A   19079.60562979 -.00000049  00000-0  00000-0 0  9995
2 37843   0.0008 190.4371 0002661 167.4187 282.8826  1.00270723 20795
ASIASAT 7               
1 37933U 11069A   19080.45594162 -.00000359  00000-0  00000+0 0  9993
2 37933   0.0148 172.7871 0001660 178.2927  97.2259  1.00271540 26947
BEIDOU 10               
1 37948U 11073A   19079.86936818 -.00000138  00000-0  10000-3 0  9995
2 37948  52.2926 303.2547 0056023 207.8112  75.9835  1.00273908 26870
LUCH 5A                 
1 37951U 11074B   19079.96160426 -.00000080  00000-0  00000-0 0  9997
2 37951   2.3125 132.6644 0003955 224.1820 333.2884  1.00271111 26662
NIGCOMSAT 1R            
1 38014U 11077A   19080.36577230  .00000119  00000-0  00000+0 0  9993
2 38014   0.0481  22.0533 0002438  13.3091 317.3559  1.00271357 26502
FENGYUN 2F              
1 38049U 12002A   19080.46143589 -.00000382  00000-0  00000+0 0  9990
2 38049   1.0481  80.8112 0001437  72.1759 304.0655  1.00270286 26373
WGS F4 (USA 233)        
1 38070U 12003A   19080.38493007 -.00000240  00000-0  00000+0 0  9992
2 38070   0.0238 169.9656 0000395 231.6884   3.9065  1.00269382 26208
SES-4                   
1 38087U 12007A   19079.86040307 -.00000194  00000-0  00000-0 0  9995
2 38087   0.0086 127.9752 0002304 241.4200  96.4255  1.00272804 25739
BEIDOU 11               
1 38091U 12008A   19080.16361269  .00000032  00000-0  00000+0 0  9998
2 38091   1.9510  68.6201 0005323 293.0742 294.3287  1.00274989 25958
MUOS-1                  
1 38093U 12009A   19079.82960881  .00000039  00000-0  00000-0 0  9995
2 38093   2.6982 352.8595 0051568 179.9255 126.9365  1.00268078 25889
INTELSAT 22 (IS-22)     
1 38098U 12011A   19079.89749038 -.00000084  00000-0  00000-0 0  9990
2 38098   0.0301 149.0476 0002840 227.6021 196.6645  1.00271027 25317
APSTAR 7                
1 38107U 12013A   19079.09036559 -.00000127  00000-0  00000-0 0  9990
2 38107   0.0191 137.7805 0002709 223.5767 284.9979  1.00271928 25637
YAHSAT 1B               
1 38245U 12016A   19079.75942233  .00000101  00000-0  00000-0 0  9995
2 38245   0.0113 189.7179 0001850 163.9474 145.3009  1.00270345 19104
